IRIDIUM 57              
1 25273U 98019B   24313.72985013  .00001847  00000+0  63483-3 0  9990
2 25273  86.3979 237.5417 0002345  83.3783 276.7680 14.35566386393152
IRIDIUM 63              
1 25286U 98021B   24313.90437017  .00001618  00000+0  54858-3 0  9995
2 25286  86.4026 174.4644 0001841  82.0224 278.1182 14.36171368392220
IRIDIUM 69              
1 25319U 98026A   24313.89187717  .00002301  00000+0  71726-3 0  9997
2 25319  86.4031 188.4016 0004030  55.3435 304.8144 14.40508078391345
IRIDIUM 71              
1 25320U 98026B   24313.93157230  .00001621  00000+0  50109-3 0  9997
2 25320  86.4027 183.1234 0004208  87.9357 272.2324 14.40751660391870
IRIDIUM 73              
1 25344U 98032C   24313.86554332  .00002605  00000+0  65261-3 0  9994
2 25344  86.4408 140.3653 0002454  72.4326 287.7147 14.51108167398607
IRIDIUM 82              
1 25467U 98051A   24313.85756664  .00043693  00000+0  17965-2 0  9991
2 25467  86.3772 216.7597 0114364  46.7665 314.3054 15.18091173390377
